25416,ORBCOMM FM20,1998,100.4,45.0,+,44.99,Active,1,LEO,Eastern Range Airspace,ORBCOMM,Commercial,Communications,Pegasus,1 25416U 98046D   23226.13865789  .00000929  00000+0  37741-3 0  9991,2 25416  44.9944 120.5698 0001271   7.5430 352.5436 14.34304803307586,14.34304803,0.0001271,LEO
25417,ORBCOMM FM16,1998,100.35,-1.0,-,44.99,Inactive,0,LEO,Eastern Range Airspace,ORBCOMM,Unknown,Unknown,Pegasus,1 25417U 98046E   23227.29203293  .00001370  00000+0  52635-3 0  9996,2 25417  44.9949 112.5526 0002723 153.4408 206.6579 14.34947264307842,14.34947264,0.0002723,LEO
25418,ORBCOMM FM15,1998,100.37,45.0,-,45.0,Inactive,1,LEO,Eastern Range Airspace,ORBCOMM,Commercial,Communications,Pegasus,1 25418U 98046F   23226.15693050  .00001161  00000+0  45568-3 0  9990,2 25418  44.9980 121.3789 0002078 151.0366 209.0597 14.34712785307640,14.34712785,0.0002078,LEO
25419,ORBCOMM FM14,1998,100.36,45.0,-,45.0,Inactive,1,LEO,Eastern Range Airspace,ORBCOMM,Commercial,Communications,Pegasus,1 25419U 98046G   23226.16067333  .00001269  00000+0  49238-3 0  9998,2 25419  44.9971 120.7582 0001288 112.2447  15.7045 14.34807309307654,14.34807309,0.0001288,LEO
25420,ORBCOMM FM13,1998,100.4,45.0,+,45.0,Active,1,LEO,Eastern Range Airspace,ORBCOMM,Commercial,Communications,Pegasus,1 25420U 98046H   23226.20743235  .00001125  00000+0  44657-3 0  9998,2 25420  44.9981 124.1364 0003340 132.6542 227.4586 14.34311953307642,14.34311953,0.000334,LEO
25475,ORBCOMM FM21,1998,100.4,45.0,-,45.01,Inactive,1,LEO,Eastern Range Airspace,ORBCOMM,Commercial,Communications,Pegasus,1 25475U 98053A   23226.36544217  .00001087  00000+0  43301-3 0  9994,2 25475  45.0072 207.4525 0001796 295.1171  64.9489 14.34334252300887,14.34334252,0.0001796,LEO
25476,ORBCOMM FM22,1998,100.37,-1.0,-,45.01,Inactive,0,LEO,Eastern Range Airspace,ORBCOMM,Unknown,Unknown,Pegasus,1 25476U 98053B   23226.35263768  .00001119  00000+0  44141-3 0  9992,2 25476  45.0068 205.6796 0000941   3.6258 356.4595 14.34671907300891,14.34671907,9.41e-05,LEO
25477,ORBCOMM FM23,1998,100.4,45.0,-,45.01,Inactive,1,LEO,Eastern Range Airspace,ORBCOMM,Commercial,Communications,Pegasus,1 25477U 98053C   23226.67265972  .00001051  00000+0  42042-3 0  9990,2 25477  45.0078 208.4345 0001048 325.2844  34.7935 14.34308693301059,14.34308693,0.0001048,LEO
